TWILIGHT V              
1 67382U 26004V   26036.22593899  .00003828  00000+0  42256-3 0  9994
2 67382  97.8008  36.9887 0004425 176.6092 183.5156 14.88029592  3669
TWILIGHT W              
1 67383U 26004W   26036.16319545  .00003057  00000+0  34097-3 0  9990
2 67383  97.7983  36.9116 0004711 193.7586 166.3503 14.87759383  3653
TWILIGHT X              
1 67384U 26004X   26036.22353059 -.00000607  00000+0 -59909-4 0  9996
2 67384  97.7983  36.9866 0003765 177.3713 182.7524 14.88213985  3664
TWILIGHT Y              
1 67385U 26004Y   26036.22199944  .00009448  00000+0  10238-2 0  9998
2 67385  97.7995  36.9908 0003914 169.0570 191.0733 14.88413699  3669
TWILIGHT Z              
1 67386U 26004Z   26036.22069830  .00005525  00000+0  60233-3 0  9992
2 67386  97.7975  36.9894 0002694 166.6073 193.5215 14.88358022  3667
TWILIGHT AA             
1 67387U 26004AA  26036.21622811  .00009033  00000+0  97186-3 0  9991
2 67387  97.8024  37.0035 0003968 140.8438 219.3067 14.88718447  3660
TWILIGHT AB             
1 67388U 26004AB  26036.21430323  .00009078  00000+0  97427-3 0  9994
2 67388  97.8013  37.0040 0003530 130.9696 229.1827 14.88817991  3663
TWILIGHT AC             
1 67389U 26004AC  26036.21854727  .00008513  00000+0  43201-3 0  9997
2 67389  97.4571  37.1896 0005254  83.2616 276.9215 15.17152630  3730
CONNECTA IOT-16         
1 67390U 26004AD  26036.21849232  .00012135  00000+0  61669-3 0  9997
2 67390  97.4571  37.1912 0005315  79.3831 280.8000 15.17005165  3730
FLAMINGO-1              
1 67391U 26004AE  26036.28117953  .00014313  00000+0  72090-3 0  9993
2 67391  97.4521  37.2435 0006753  73.4795 286.7180 15.17269917  3740
TWILIGHT AF             
1 67392U 26004AF  26036.27422848  .00027930  00000+0  13677-2 0  9999
2 67392  97.4422  37.1997 0007481  79.6684 280.5393 15.18109040  3746
TWILIGHT AG             
1 67393U 26004AG  26036.27354567  .00022381  00000+0  11007-2 0  9992
2 67393  97.4571  37.2805 0007603  77.9379 282.2707 15.18002136  3745
