CCSDS_OMM_VERS = 2.0
CREATION_DATE  = 
ORIGINATOR     = 

OBJECT_NAME    = TWILIGHT V
OBJECT_ID      = 2026-004V
CENTER_NAME    = EARTH
REF_FRAME      = TEME
TIME_SYSTEM    = UTC
MEAN_ELEMENT_THEORY = SGP/SGP4

EPOCH          = 2026-02-05T05:25:21.128736
MEAN_MOTION    = 14.88029592
ECCENTRICITY   = .00044259
INCLINATION    = 97.8008
RA_OF_ASC_NODE = 36.9887
ARG_OF_PERICENTER = 176.6092
MEAN_ANOMALY   = 183.5156

EPHEMERIS_TYPE = 0
CLASSIFICATION_TYPE = U
NORAD_CAT_ID   = 67382
ELEMENT_SET_NO = 999
REV_AT_EPOCH   = 366
BSTAR          = .42255884E-3
MEAN_MOTION_DOT = .3828E-4
MEAN_MOTION_DDOT = 0

CCSDS_OMM_VERS = 2.0
CREATION_DATE  = 
ORIGINATOR     = 

OBJECT_NAME    = TWILIGHT W
OBJECT_ID      = 2026-004W
CENTER_NAME    = EARTH
REF_FRAME      = TEME
TIME_SYSTEM    = UTC
MEAN_ELEMENT_THEORY = SGP/SGP4

EPOCH          = 2026-02-05T03:55:00.086880
MEAN_MOTION    = 14.87759383
ECCENTRICITY   = .00047119
INCLINATION    = 97.7983
RA_OF_ASC_NODE = 36.9116
ARG_OF_PERICENTER = 193.7586
MEAN_ANOMALY   = 166.3503

EPHEMERIS_TYPE = 0
CLASSIFICATION_TYPE = U
NORAD_CAT_ID   = 67383
ELEMENT_SET_NO = 999
REV_AT_EPOCH   = 365
BSTAR          = .34096684E-3
MEAN_MOTION_DOT = .3057E-4
MEAN_MOTION_DDOT = 0

CCSDS_OMM_VERS = 2.0
CREATION_DATE  = 
ORIGINATOR     = 

OBJECT_NAME    = TWILIGHT X
OBJECT_ID      = 2026-004X
CENTER_NAME    = EARTH
REF_FRAME      = TEME
TIME_SYSTEM    = UTC
MEAN_ELEMENT_THEORY = SGP/SGP4

EPOCH          = 2026-02-05T05:21:53.042976
MEAN_MOTION    = 14.88213985
ECCENTRICITY   = .00037657
INCLINATION    = 97.7983
RA_OF_ASC_NODE = 36.9866
ARG_OF_PERICENTER = 177.3713
MEAN_ANOMALY   = 182.7524

EPHEMERIS_TYPE = 0
CLASSIFICATION_TYPE = U
NORAD_CAT_ID   = 67384
ELEMENT_SET_NO = 999
REV_AT_EPOCH   = 366
BSTAR          = -.59909235E-4
MEAN_MOTION_DOT = -.607E-5
MEAN_MOTION_DDOT = 0

CCSDS_OMM_VERS = 2.0
CREATION_DATE  = 
ORIGINATOR     = 

OBJECT_NAME    = TWILIGHT Y
OBJECT_ID      = 2026-004Y
CENTER_NAME    = EARTH
REF_FRAME      = TEME
TIME_SYSTEM    = UTC
MEAN_ELEMENT_THEORY = SGP/SGP4

EPOCH          = 2026-02-05T05:19:40.751616
MEAN_MOTION    = 14.88413699
ECCENTRICITY   = .00039141
INCLINATION    = 97.7995
RA_OF_ASC_NODE = 36.9908
ARG_OF_PERICENTER = 169.0570
MEAN_ANOMALY   = 191.0733

EPHEMERIS_TYPE = 0
CLASSIFICATION_TYPE = U
NORAD_CAT_ID   = 67385
ELEMENT_SET_NO = 999
REV_AT_EPOCH   = 366
BSTAR          = .10238226E-2
MEAN_MOTION_DOT = .9448E-4
MEAN_MOTION_DDOT = 0

CCSDS_OMM_VERS = 2.0
CREATION_DATE  = 
ORIGINATOR     = 

OBJECT_NAME    = TWILIGHT Z
OBJECT_ID      = 2026-004Z
CENTER_NAME    = EARTH
REF_FRAME      = TEME
TIME_SYSTEM    = UTC
MEAN_ELEMENT_THEORY = SGP/SGP4

EPOCH          = 2026-02-05T05:17:48.333120
MEAN_MOTION    = 14.88358022
ECCENTRICITY   = .0002694
INCLINATION    = 97.7975
RA_OF_ASC_NODE = 36.9894
ARG_OF_PERICENTER = 166.6073
MEAN_ANOMALY   = 193.5215

EPHEMERIS_TYPE = 0
CLASSIFICATION_TYPE = U
NORAD_CAT_ID   = 67386
ELEMENT_SET_NO = 999
REV_AT_EPOCH   = 366
BSTAR          = .60232721E-3
MEAN_MOTION_DOT = .5525E-4
MEAN_MOTION_DDOT = 0

CCSDS_OMM_VERS = 2.0
CREATION_DATE  = 
ORIGINATOR     = 

OBJECT_NAME    = TWILIGHT AA
OBJECT_ID      = 2026-004AA
CENTER_NAME    = EARTH
REF_FRAME      = TEME
TIME_SYSTEM    = UTC
MEAN_ELEMENT_THEORY = SGP/SGP4

EPOCH          = 2026-02-05T05:11:22.108704
MEAN_MOTION    = 14.88718447
ECCENTRICITY   = .0003968
INCLINATION    = 97.8024
RA_OF_ASC_NODE = 37.0035
ARG_OF_PERICENTER = 140.8438
MEAN_ANOMALY   = 219.3067

EPHEMERIS_TYPE = 0
CLASSIFICATION_TYPE = U
NORAD_CAT_ID   = 67387
ELEMENT_SET_NO = 999
REV_AT_EPOCH   = 366
BSTAR          = .97185568E-3
MEAN_MOTION_DOT = .9033E-4
MEAN_MOTION_DDOT = 0

CCSDS_OMM_VERS = 2.0
CREATION_DATE  = 
ORIGINATOR     = 

OBJECT_NAME    = TWILIGHT AB
OBJECT_ID      = 2026-004AB
CENTER_NAME    = EARTH
REF_FRAME      = TEME
TIME_SYSTEM    = UTC
MEAN_ELEMENT_THEORY = SGP/SGP4

EPOCH          = 2026-02-05T05:08:35.799072
MEAN_MOTION    = 14.88817991
ECCENTRICITY   = .00035305
INCLINATION    = 97.8013
RA_OF_ASC_NODE = 37.0040
ARG_OF_PERICENTER = 130.9696
MEAN_ANOMALY   = 229.1827

EPHEMERIS_TYPE = 0
CLASSIFICATION_TYPE = U
NORAD_CAT_ID   = 67388
ELEMENT_SET_NO = 999
REV_AT_EPOCH   = 366
BSTAR          = .97427136E-3
MEAN_MOTION_DOT = .9078E-4
MEAN_MOTION_DDOT = 0

CCSDS_OMM_VERS = 2.0
CREATION_DATE  = 
ORIGINATOR     = 

OBJECT_NAME    = TWILIGHT AC
OBJECT_ID      = 2026-004AC
CENTER_NAME    = EARTH
REF_FRAME      = TEME
TIME_SYSTEM    = UTC
MEAN_ELEMENT_THEORY = SGP/SGP4

EPOCH          = 2026-02-05T05:14:42.484128
MEAN_MOTION    = 15.17152630
ECCENTRICITY   = .00052545
INCLINATION    = 97.4571
RA_OF_ASC_NODE = 37.1896
ARG_OF_PERICENTER = 83.2616
MEAN_ANOMALY   = 276.9215

EPHEMERIS_TYPE = 0
CLASSIFICATION_TYPE = U
NORAD_CAT_ID   = 67389
ELEMENT_SET_NO = 999
REV_AT_EPOCH   = 373
BSTAR          = .43201405E-3
MEAN_MOTION_DOT = .8513E-4
MEAN_MOTION_DDOT = 0

CCSDS_OMM_VERS = 2.0
CREATION_DATE  = 
ORIGINATOR     = 

OBJECT_NAME    = CONNECTA IOT-16
OBJECT_ID      = 2026-004AD
CENTER_NAME    = EARTH
REF_FRAME      = TEME
TIME_SYSTEM    = UTC
MEAN_ELEMENT_THEORY = SGP/SGP4

EPOCH          = 2026-02-05T05:14:37.736448
MEAN_MOTION    = 15.17005165
ECCENTRICITY   = .00053154
INCLINATION    = 97.4571
RA_OF_ASC_NODE = 37.1912
ARG_OF_PERICENTER = 79.3831
MEAN_ANOMALY   = 280.8000

EPHEMERIS_TYPE = 0
CLASSIFICATION_TYPE = U
NORAD_CAT_ID   = 67390
ELEMENT_SET_NO = 999
REV_AT_EPOCH   = 373
BSTAR          = .616688E-3
MEAN_MOTION_DOT = .12135E-3
MEAN_MOTION_DDOT = 0

CCSDS_OMM_VERS = 2.0
CREATION_DATE  = 
ORIGINATOR     = 

OBJECT_NAME    = FLAMINGO-1
OBJECT_ID      = 2026-004AE
CENTER_NAME    = EARTH
REF_FRAME      = TEME
TIME_SYSTEM    = UTC
MEAN_ELEMENT_THEORY = SGP/SGP4

EPOCH          = 2026-02-05T06:44:53.911392
MEAN_MOTION    = 15.17269917
ECCENTRICITY   = .0006753
INCLINATION    = 97.4521
RA_OF_ASC_NODE = 37.2435
ARG_OF_PERICENTER = 73.4795
MEAN_ANOMALY   = 286.7180

EPHEMERIS_TYPE = 0
CLASSIFICATION_TYPE = U
NORAD_CAT_ID   = 67391
ELEMENT_SET_NO = 999
REV_AT_EPOCH   = 374
BSTAR          = .7208954E-3
MEAN_MOTION_DOT = .14313E-3
MEAN_MOTION_DDOT = 0

CCSDS_OMM_VERS = 2.0
CREATION_DATE  = 
ORIGINATOR     = 

OBJECT_NAME    = TWILIGHT AF
OBJECT_ID      = 2026-004AF
CENTER_NAME    = EARTH
REF_FRAME      = TEME
TIME_SYSTEM    = UTC
MEAN_ELEMENT_THEORY = SGP/SGP4

EPOCH          = 2026-02-05T06:34:53.340672
MEAN_MOTION    = 15.18109040
ECCENTRICITY   = .00074819
INCLINATION    = 97.4422
RA_OF_ASC_NODE = 37.1997
ARG_OF_PERICENTER = 79.6684
MEAN_ANOMALY   = 280.5393

EPHEMERIS_TYPE = 0
CLASSIFICATION_TYPE = U
NORAD_CAT_ID   = 67392
ELEMENT_SET_NO = 999
REV_AT_EPOCH   = 374
BSTAR          = .13676569E-2
MEAN_MOTION_DOT = .2793E-3
MEAN_MOTION_DDOT = 0

CCSDS_OMM_VERS = 2.0
CREATION_DATE  = 
ORIGINATOR     = 

OBJECT_NAME    = TWILIGHT AG
OBJECT_ID      = 2026-004AG
CENTER_NAME    = EARTH
REF_FRAME      = TEME
TIME_SYSTEM    = UTC
MEAN_ELEMENT_THEORY = SGP/SGP4

EPOCH          = 2026-02-05T06:33:54.345888
MEAN_MOTION    = 15.18002136
ECCENTRICITY   = .00076032
INCLINATION    = 97.4571
RA_OF_ASC_NODE = 37.2805
ARG_OF_PERICENTER = 77.9379
MEAN_ANOMALY   = 282.2707

EPHEMERIS_TYPE = 0
CLASSIFICATION_TYPE = U
NORAD_CAT_ID   = 67393
ELEMENT_SET_NO = 999
REV_AT_EPOCH   = 374
BSTAR          = .11007454E-2
MEAN_MOTION_DOT = .22381E-3
MEAN_MOTION_DDOT = 0

